{
  "description": "Sample batch addresses for address validation demo",
  "addresses": [
    {"id": 1, "address": "123 Main St", "city": "Springfield", "state": "VA", "zip": "22150", "error_type": "valid"},
    {"id": 2, "address": "456 Oak Ave", "city": "Sprigfield", "state": "VA", "zip": "22151", "error_type": "misspelled_city", "correct_city": "Springfield"},
    {"id": 3, "address": "789 Elm Blvd", "city": "Arlington", "state": "VA", "zip": "", "error_type": "missing_zip", "original_zip": "22201"},
    {"id": 4, "address": "321 Pine Rd", "city": "Alexadria", "state": "VA", "zip": "22301", "error_type": "misspelled_city", "correct_city": "Alexandria"},
    {"id": 5, "address": "555 Mapel Way", "city": "Fairfax", "state": "VA", "zip": "22030", "error_type": "misspelled_street", "correct_street": "555 Maple Way"},
    {"id": 6, "address": "  777 Cedar   Ln  ", "city": "Vienna", "state": "VA", "zip": "22180", "error_type": "extra_spaces_formatting", "correct_address": "777 Cedar Ln"},
    {"id": 7, "address": "999 Birch Dr", "city": "Reston", "state": "VA", "zip": "20109", "error_type": "transposed_zip_digits", "correct_zip": "20190"},
    {"id": 8, "address": "111 Willow Ct", "city": "Herndon", "state": "MD", "zip": "20170", "error_type": "wrong_state", "correct_state": "VA"},
    {"id": 9, "address": "444 cherry blvd apt 101", "city": "mclean", "state": "va", "zip": "22101", "error_type": "mixed_case_issues", "correct_format": "444 Cherry Blvd Apt 101, McLean, VA"},
    {"id": 10, "address": "888 Ash", "city": "Tysons", "state": "VA", "zip": "22102", "error_type": "truncated_address", "correct_address": "888 Ash Street"}
  ]
}
